              M50 Cartesian                         M50 Keplerian  
    -----------------------------------       --------------------------------
     X    =        4427199.04                 A    =         6779292.21  meter
     Y    =        2227094.34  meter          E    =           .0009746
     Z    =        4619391.76                 I    =           51.27433
     XDOT =       -523.076448                 Wp   =           71.08389
     YDOT =       7082.400421  meter/sec      RA   =          255.07476  deg
     ZDOT =      -2905.099097                 TA   =           47.99059
                                              MA   =           47.90765
                                              Ha   =            221.069  n.mi
                                              Hp   =            213.528
 
              M50 Cartesian                         J2K Cartesian  
    -----------------------------------       --------------------------------
     X    =       14524931.22                 X    =         4379526.64
     Y    =        7306739.95  feet           Y    =         2276335.46  meter
     Z    =       15155484.77                 Z    =         4640782.69
     XDOT =      -1716.130078                 XDOT =        -588.122763
     YDOT =      23236.221855  feet/sec       YDOT =        7076.187470  meter/sec
     ZDOT =      -9531.165015                 ZDOT =       -2907.797787
 
              TDR Cartesian                         TDR Cartesian  
    -----------------------------------       --------------------------------
     X    =       15288487.69                 X    =         4659931.05
     Y    =       -5273697.33  feet           Y    =        -1607422.95  meter
     Z    =       15247985.27                 Z    =         4647585.91
     XDOT =      15148.723424                 XDOT =        4617.330900
     YDOT =      16244.183202  feet/sec       YDOT =        4951.227040  meter/sec
     ZDOT =      -9544.161429                 ZDOT =       -2909.060403
  
  
    The mean element set is posted at the UTC for which position is
    just north of the next ascending node relative to the above
    vector time
 
 
    TWO LINE MEAN ELEMENT SET
  
    ISS
    1 25544U 98067A   16129.54308144  .00016717  00000-0  10270-3 0  9117
    2 25544  51.6427 255.8026 0001840 101.2080 258.9279 15.54423859 38818
  
  
    Satellite: ISS
    Catalog Number: 25544
    Epoch time:      16129.54308144   =   yrday.fracday
    Element set:     911
    Inclination:       51.6427  deg
    RA of node:       255.8026  deg
    Eccentricity:     .0001840     
    Arg of perigee:   101.2080  deg
    Mean anomaly:     258.9279  deg
    Mean motion:   15.54423859  rev/day
    Decay rate:    1.67170E-04  rev/day^2
    Epoch rev:            3881
    Checksum:              309
 
 
    Coasting Arc #13 (Orbit 3895)
    ---------------------------------------
 
    Vector Time (GMT): 2016/130/12:00:00.000
    Vector Time (MET): N/A
    Weight (LBS)     : 945238.6
 
              M50 Cartesian                         M50 Keplerian  
    -----------------------------------       --------------------------------
     X    =       -4370765.52                 A    =         6783158.36  meter
     Y    =       -3840717.35  meter          E    =           .0006813
     Z    =       -3493218.69                 I    =           51.29653
     XDOT =       1664.010794                 Wp   =           95.99664
     YDOT =      -5976.687041  meter/sec      RA   =          250.06030  deg
     ZDOT =       4496.087675                 TA   =          222.73597
                                              MA   =          222.78897
                                              Ha   =            221.092  n.mi
                                              Hp   =            213.474
 
              M50 Cartesian                         J2K Cartesian  
    -----------------------------------       --------------------------------
     X    =      -14339781.90                 X    =        -4310524.03
     Y    =      -12600778.71  feet           Y    =        -3889257.13  meter
     Z    =      -11460691.25                 Z    =        -3514304.98
     XDOT =       5459.352999                 XDOT =        1708.879566
     YDOT =     -19608.553284  feet/sec       YDOT =       -5957.828348  meter/sec
     ZDOT =      14750.943816                 ZDOT =        4504.279776
 
              TDR Cartesian                         TDR Cartesian  
    -----------------------------------       --------------------------------
     X    =      -18949344.86                 X    =        -5775760.31
     Y    =        1799856.04  feet           Y    =          548596.12  meter
     Z    =      -11551591.26                 Z    =        -3520925.02
     XDOT =     -10514.493764                 XDOT =       -3204.817699
     YDOT =     -15935.393017  feet/sec       YDOT =       -4857.107791  meter/sec
     ZDOT =      14787.595451                 ZDOT =        4507.259093
  
  
    The mean element set is posted at the UTC for which position is
    just north of the next ascending node relative to the above
    vector time
 
 
    TWO LINE MEAN ELEMENT SET
  
    ISS
    1 25544U 98067A   16130.50740769  .00016717  00000-0  10270-3 0  9129
    2 25544  51.6425 250.9944 0001691  99.7197 260.4147 15.54443395 38960
  
  
    Satellite: ISS
    Catalog Number: 25544
    Epoch time:      16130.50740769   =   yrday.fracday
    Element set:     912
    Inclination:       51.6425  deg
    RA of node:       250.9944  deg
    Eccentricity:     .0001691     
    Arg of perigee:    99.7197  deg
    Mean anomaly:     260.4147  deg
    Mean motion:   15.54443395  rev/day
    Decay rate:    1.67170E-04  rev/day^2
    Epoch rev:            3896
    Checksum:              333
 
 
    Coasting Arc #14 (Orbit 3911)
    ---------------------------------------
 
    Vector Time (GMT): 2016/131/12:00:00.000
    Vector Time (MET): N/A
    Weight (LBS)     : 945238.6
 
              M50 Cartesian                         M50 Keplerian  
    -----------------------------------       --------------------------------
     X    =        4056633.84                 A    =         6786770.89  meter
     Y    =        5082077.83  meter          E    =           .0015731
     Z    =        1917506.03                 I    =           51.31990
     XDOT =      -2874.707879                 Wp   =          112.15883
     YDOT =       4411.606084  meter/sec      RA   =          245.05747  deg
     ZDOT =      -5579.699128                 TA   =           46.59861
                                              MA   =           46.46774
                                              Ha   =            221.068  n.mi
                                              Hp   =            213.494
 
              M50 Cartesian                         J2K Cartesian  
    -----------------------------------       --------------------------------
     X    =       13309166.16                 X    =         3990188.77
     Y    =       16673483.70  feet           Y    =         5127070.18  meter
     Z    =        6291030.28                 Z    =         1937051.24
     XDOT =      -9431.456296                 XDOT =       -2896.721866
     YDOT =      14473.773243  feet/sec       YDOT =        4379.336426  meter/sec
     ZDOT =     -18306.099500                 ZDOT =       -5593.717091
 
              TDR Cartesian                         TDR Cartesian  
    -----------------------------------       --------------------------------
     X    =       21266489.28                 X    =         6482025.93
     Y    =        1345897.64  feet           Y    =          410229.60  meter
     Z    =        6375030.79                 Z    =         1943109.38
     XDOT =       4582.748589                 XDOT =        1396.821770
     YDOT =      15064.544926  feet/sec       YDOT =        4591.673293  meter/sec
     ZDOT =     -18367.775180                 ZDOT =       -5598.497875
  
  
    The mean element set is posted at the UTC for which position is
    just north of the next ascending node relative to the above
    vector time
 
 
    TWO LINE MEAN ELEMENT SET
  
    ISS
    1 25544U 98067A   16131.53601675  .00016717  00000-0  10270-3 0  9136
    2 25544  51.6419 245.8645 0001783 108.2188 251.9159 15.54458947 39128
  
  
    Satellite: ISS
    Catalog Number: 25544
    Epoch time:      16131.53601675   =   yrday.fracday
    Element set:     913
    Inclination:       51.6419  deg
    RA of node:       245.8645  deg
    Eccentricity:     .0001783     
    Arg of perigee:   108.2188  deg
    Mean anomaly:     251.9159  deg
    Mean motion:   15.54458947  rev/day
    Decay rate:    1.67170E-04  rev/day^2
    Epoch rev:            3912
    Checksum:              328
 
 
    Coasting Arc #15 (Orbit 3926)
    ---------------------------------------
 
    Vector Time (GMT): 2016/132/12:00:00.000
    Vector Time (MET): N/A
    Weight (LBS)     : 945238.6
 
              M50 Cartesian                         M50 Keplerian  
    -----------------------------------       --------------------------------
     X    =       -3486186.58                 A    =         6788293.28  meter
     Y    =       -5816742.52  meter          E    =           .0012726
     Z    =        -147825.06                 I    =           51.34071
     XDOT =       4046.962770                 Wp   =           51.13672
     YDOT =      -2568.572896  meter/sec      RA   =          240.06340  deg
     ZDOT =       5986.153897                 TA   =          307.26401
                                              MA   =          307.38000
                                              Ha   =            221.048  n.mi
                                              Hp   =            213.492
 
